#aV2023  9  6  0  0  0.00000000     288 DD+AD WGS84 FIT  NGA
## 2278 259200.00000000   300.00000000 60193 0.0000000000000
+   32     1  2  3  4  5  6  7  8  9 10 11 12 13 14 15 16 17
+         18 19 20 21 22 23 24 25 26 27 28 29 30 31 32  0  0
+          0  0  0  0  0  0  0  0  0  0  0  0  0  0  0  0  0
+          0  0  0  0  0  0  0  0  0  0  0  0  0  0  0  0  0
+          0  0  0  0  0  0  0  0  0  0  0  0  0  0  0  0  0
++         2  2  2  2  2  2  2  2  2  2  2  2  2  2  2  2  2
++         2  2  2  2  2  2  2  2  2  2  2  2  2  2  2  0  0
++         0  0  0  0  0  0  0  0  0  0  0  0  0  0  0  0  0
++         0  0  0  0  0  0  0  0  0  0  0  0  0  0  0  0  0
++         0  0  0  0  0  0  0  0  0  0  0  0  0  0  0  0  0
%c cc cc ccc ccc cccc cccc cccc cccc ccccc ccccc ccccc ccccc
%c cc cc ccc ccc cccc cccc cccc cccc ccccc ccccc ccccc ccccc
%f  0.0000000  0.000000000  0.00000000000  0.000000000000000
%f  0.0000000  0.000000000  0.00000000000  0.000000000000000
%i    0    0    0    0      0      0      0      0         0
%i    0    0    0    0      0      0      0      0         0
/*      NGA, ST. LOUIS,MO.                                  
/*   EPHEMERIS COMPUTED FROM 2 DAYS OF DATA                 
/*   EPOCHA v8 SMOOTHER                                     
/*   G2139 IERS2010 SATIGS SATAPC                           
*  2023  9  6 11  0  0.00000000
P  1  21759.140559  14541.048318   5147.778612    166.205051                    
V  1   4143.908782   5740.744106 -31298.457095     -0.010469                    
P  2  21074.216731  16197.805027  -1453.492960   -557.139152                    
V  2  -3426.793284    604.296966 -31729.398895      0.043540                    
P  3  13048.386034   8486.540434  21390.871129   -149.838351                    
V  3  -5305.070259  26918.589420  -7285.153789      0.199842                    
P  4  22807.007226   2481.894413  13495.519013    147.889294                    
V  4 -15608.142574   7215.492993  24946.535844      0.112529                    
P  5  -6513.785236 -21993.498445 -13488.309059   -141.661877                    
V  5   4239.229704 -16440.328075  25199.650264     -0.014648                    
P  6   4061.517217 -15128.398355  21496.558133    554.974404                    
V  6  20875.723077  17265.064499   8318.352729     -0.063605                    
P  7  19897.396073    595.168983 -17340.355422     74.914974                    
V  7  16320.892450  16015.200780  18298.772549     -0.105943                    
P  8  14977.463548   9278.650097 -20064.935429   -140.875312                    
V  8 -23107.070513  10126.562253 -12219.056962     -0.019174                    
P  9  25361.035209  -5661.586272   5529.169066    -67.116978                    
V  9  -5616.194259   5209.420277  30593.264591      0.101460                    
P 10 -10911.247660  21580.508545 -10423.090683    -52.277989                    
V 10    160.161959 -13766.785196 -28499.204914     -0.015429                    
P 11  -8603.642019 -21032.010208  13803.837416   -355.552664                    
V 11  14177.834148  10419.018674  24684.214671     -0.181059                    
P 12 -11009.443330 -13179.294581  20011.295290   -421.593570                    
V 12   7350.054181 -24944.925785 -12147.551652     -0.043947                    
P 13  -5652.301461 -14165.126621 -21951.257442    569.212530                    
V 13  26745.710785  -5792.272529  -2967.906367      0.045655                    
P 14  13413.022891 -18813.850288 -12926.385022    176.659616                    
V 14   -714.894885  16751.441148 -25244.355247      0.114587                    
P 15 -16685.249892  -7666.038274 -19750.987580     74.873622                    
V 15  20629.249602 -12486.371324 -12654.265189      0.036488                    
P 16    690.537988  24424.895862 -10136.673536   -458.103122                    
V 16  -5876.540182  11435.824991  28446.865136      0.053828                    
P 17  20244.816491 -13709.257831  10942.589659    723.541721                    
V 17  13200.487281  -1866.547634 -27765.274584      0.003128                    
P 18 -18156.494589   1609.673822 -19378.267730   -408.103313                    
V 18 -17782.230519 -16909.938470  15080.241077     -0.127854                    
P 19  13662.407252 -15079.407579  16680.897336    367.764928                    
V 19  21494.438051  -3379.531599 -20738.875783      0.051761                    
P 20  -1450.307009 -26527.797502  -2220.231592    413.309516                    
V 20   3011.034630  -2837.072130  31219.232600     -0.019760                    
P 21  20244.417138  17414.379558  -3762.515754    149.437614                    
V 21  -5514.720546  -1377.336441 -30733.393922     -0.007244                    
P 22  10558.355825 -23761.809212  -5618.971926    127.170724                    
V 22    390.378003   8060.689873 -30557.577542     -0.074138                    
P 23 -14793.914137  10545.335226 -19307.614566     64.675195                    
V 23   2389.811989 -24459.820063 -15354.097236      0.051002                    
P 24 -21871.433441 -15473.172252   -244.512774   -311.634371                    
V 24   1772.050202  -2775.127256 -30883.214568     -0.109027                    
P 25 -15562.838094   2241.007545  21058.542408    466.288484                    
V 25   3741.213069 -27302.703908   5847.748391      0.020410                    
P 26  -3866.272651  26032.425023   1518.904661    229.791204                    
V 26  -3766.288956  -2506.797663  31266.318953     -0.017374                    
P 27   2009.124619  15321.613295 -21817.118912    -34.876810                    
V 27 -25643.715690   8874.035968   4319.586464     -0.064049                    
P 28  -5784.173174  14495.864609  21470.176583     -6.194553                    
V 28 -21771.669679 -16491.299067   5262.729717     -0.047472                    
P 29 -25843.545996   3452.195970   5307.322596   -608.966662                    
V 29   5928.308866  -3944.636905  31055.895843     -0.004712                    
P 30  13132.615255  -9211.881644 -21074.532585   -490.201026                    
V 30  20350.366904  17914.753618   4560.475098      0.033029                    
P 31   3591.190800  19481.134845  17299.673946   -222.978387                    
V 31 -18283.450759 -13303.452291  18991.137248     -0.005593                    
P 32 -16186.335023  16133.512458  13537.401186   -553.419192                    
V 32 -16715.166826   3758.975942 -24993.443678     -0.062897                    
EOF
